     3.02           N: GNSS NAV DATA    G: GPS              RINEX VERSION / TYPE
Skytraq FW host     Skytraq Corp.       20241216 141316 UTC PGM / RUN BY / DATE
Skytraq FW kernel 1.100.38                                  COMMENT
Stq test version                                            COMMENT
GPSA    .2421e-07   .7451e-08  -.1192e-06   .1192e-06       IONOSPHERIC CORR
GPSB    .1475e+06  -.2130e+06   .0000e+00   .3277e+06       IONOSPHERIC CORR
GPUT   .9313225746E-09  .444089210E-14 233472 1577          TIME SYSTEM CORR
    18                                                      LEAP SECONDS
                                                            END OF HEADER
G29 2005  5  2  5 59 44-5.555348470807e-04 3.183231456205e-12 0.000000000000e+00
     2.000000000000e+00 1.618125000000e+02 3.985523155894e-09-8.761507721336e-01
     8.149072527885e-06 2.886163303628e-03 8.802860975265e-06 5.153741943359e+03
     1.079840000000e+05-2.793967723846e-08-2.582704670759e+00-3.911554813385e-08
     9.686693000045e-01 2.127500000000e+02 2.654250140881e+00-7.790324498285e-09
     1.353627812603e-10 1.000000000000e+00 1.321000000000e+03 0.000000000000e+00
     2.400000000000e+00 0.000000000000e+00-9.778887033463e-09 2.000000000000e+00
     1.008060000000e+05 4.000000000000e+00
G25 2005  5  2  6  0  0 4.980429075658e-04-4.547473508865e-13 0.000000000000e+00
     1.100000000000e+01 2.812500000000e+00 4.708410409907e-09 1.806536532972e+00
    -1.117587089539e-08 1.222327572759e-02 9.130686521530e-06 5.153691295624e+03
     1.080000000000e+05-1.788139343262e-07 2.558555527159e+00-2.849847078323e-07
     9.492983584527e-01 1.977500000000e+02 1.103494548292e+00-7.927115910482e-09
    -6.343121359322e-10 1.000000000000e+00 1.321000000000e+03 0.000000000000e+00
     2.400000000000e+00 0.000000000000e+00 5.587935447693e-09 1.100000000000e+01
     1.008060000000e+05 4.000000000000e+00
G27 2005  5  2  6  0  0-3.413809463382e-05 3.410605131648e-13 0.000000000000e+00
     4.300000000000e+01 1.340937500000e+02 4.277678182466e-09-7.192062098026e-01
     7.210299372673e-06 1.301021396648e-02 8.536502718925e-06 5.153691410065e+03
     1.080000000000e+05 1.508742570877e-07-2.667876400629e+00 2.440065145492e-07
     9.594754318773e-01 2.165312500000e+02 8.036065195628e-01-7.999976088258e-09
     2.892977646988e-11 1.000000000000e+00 1.321000000000e+03 0.000000000000e+00
     2.400000000000e+00 0.000000000000e+00 1.862645149231e-09 4.300000000000e+01
     1.008060000000e+05 4.000000000000e+00
G08 2005  5  2  6  0  0 4.395390860736e-04 8.981260180008e-12 0.000000000000e+00
     7.600000000000e+01 1.267500000000e+02 4.400183285296e-09-7.957853689120e-01
     6.698071956634e-06 1.015719794668e-02 8.350238204002e-06 5.153730556488e+03
     1.080000000000e+05 2.216547727585e-07-2.696082014181e+00 2.793967723846e-08
     9.504357436122e-01 2.107812500000e+02 3.902430090163e-01-8.009262189347e-09
     1.714357124141e-11 1.000000000000e+00 1.321000000000e+03 0.000000000000e+00
     2.400000000000e+00 0.000000000000e+00 4.656612873077e-09 7.600000000000e+01
     1.039260000000e+05 4.000000000000e+00
